NORAD_CAT_ID,OBJECT_NAME,OBJECT_TYPE,EPOCH,MEAN_MOTION,ECCENTRICITY,INCLINATION,RA_OF_ASC_NODE,ARG_OF_PERICENTER,MEAN_ANOMALY,BSTAR,MEAN_MOTION_DOT,MEAN_MOTION_DDOT,TLE_LINE0,TLE_LINE1,TLE_LINE2,SEMIMAJOR_AXIS,PERIOD,APOGEE,PERIGEE,DECAYED
53410.0,STARLINK-4492,PAYLOAD,2023-01-06 04:05:52,15.08846809,0.0002166,53.2161,274.9117,35.1346,324.9788,-0.00014742,-2.634e-05,0.0,0 STARLINK-4492,1 53410U 22097Y   23006.17074567 -.00002634  00000-0 -14742-3 0  9999,2 53410  53.2161 274.9117 0002166  35.1346 324.9788 15.08846809 23264,6917.86,95.437,541.2230000000002,538.226,0.0
53410.0,STARLINK-4492,PAYLOAD,2023-01-06 10:27:25,15.08832169,0.0002258,53.2156,273.7201,24.7552,335.3548,-0.00041223,-6.842e-05,0.0,0 STARLINK-4492,1 53410U 22097Y   23006.43571077 -.00006842  00000-0 -41223-3 0  9995,2 53410  53.2156 273.7201 0002258  24.7552 335.3548 15.08832169 23303,6917.904,95.438,541.331,538.207,0.0
53410.0,STARLINK-4492,PAYLOAD,2023-01-06 18:24:21,15.08830723,0.0002316,53.2154,272.2333,29.8616,330.2508,-0.00032317,-5.427e-05,0.0,0 STARLINK-4492,1 53410U 22097Y   23006.76691298 -.00005427  00000-0 -32317-3 0  9991,2 53410  53.2154 272.2333 0002316  29.8616 330.2508 15.08830723 23846,6917.9090000000015,95.438,541.376,538.172,0.0
53410.0,STARLINK-4492,PAYLOAD,2023-01-07 02:21:16,15.08838683,0.0002316,53.2154,270.7464,33.0523,327.0614,-5.7472e-05,-1.203e-05,0.0,0 STARLINK-4492,1 53410U 22097Y   23007.09811295 -.00001203  00000-0 -57472-4 0  9997,2 53410  53.2154 270.7464 0002316  33.0523 327.0614 15.08838683 23405,6917.884,95.438,541.352,538.1469999999998,0.0
53410.0,STARLINK-4492,PAYLOAD,2023-01-07 19:50:32,15.08826012,0.0001999,53.2154,267.4771,33.0032,327.1084,6.328e-05,7.19e-06,0.0,0 STARLINK-4492,1 53410U 22097Y   23007.82676215  .00000719  00000-0  63280-4 0  9992,2 53410  53.2154 267.4771 0001999  33.0032 327.1084 15.08826012 23517,6917.923000000002,95.438,541.1709999999998,538.405,0.0
53410.0,STARLINK-4492,PAYLOAD,2023-01-08 11:44:23,15.08835695,0.0002185,53.2155,264.505,35.3426,324.7711,9.9933e-05,1.302e-05,0.0,0 STARLINK-4492,1 53410U 22097Y   23008.48916246  .00001302  00000-0  99933-4 0  9999,2 53410  53.2155 264.5050 0002185  35.3426 324.7711 15.08835695 23614,6917.894,95.438,541.27,538.247,0.0
53410.0,STARLINK-4492,PAYLOAD,2023-01-08 22:52:05,15.08838558,0.0002108,53.2155,262.4217,35.1398,324.9732,0.00022838,3.348e-05,0.0,0 STARLINK-4492,1 53410U 22097Y   23008.95284475  .00003348  00000-0  22838-3 0  9994,2 53410  53.2155 262.4217 0002108  35.1398 324.9732 15.08838558 24175,6917.885,95.438,541.2080000000002,538.2919999999998,0.0
53410.0,STARLINK-4492,PAYLOAD,2023-01-09 11:35:11,15.08838897,0.0002204,53.2157,260.0432,34.9474,325.1663,0.00012368,1.681e-05,0.0,0 STARLINK-4492,1 53410U 22097Y   23009.48276640  .00001681  00000-0  12368-3 0  9993,2 53410  53.2157 260.0432 0002204  34.9474 325.1663 15.08838897 24250,6917.884,95.438,541.273,538.224,0.0
53410.0,STARLINK-4492,PAYLOAD,2023-01-09 16:21:20,15.08838333,0.0002133,53.2155,259.1513,33.2814,326.8312,0.00026204,3.884e-05,0.0,0 STARLINK-4492,1 53410U 22097Y   23009.68148743  .00003884  00000-0  26204-3 0  9998,2 53410  53.2155 259.1513 0002133  33.2814 326.8312 15.08838333 23790,6917.885,95.438,541.226,538.275,0.0
53410.0,STARLINK-4492,PAYLOAD,2023-01-09 22:42:53,15.08833239,0.0002096,53.216,257.9614,33.3449,326.7675,0.00016845,2.393e-05,0.0,0 STARLINK-4492,1 53410U 22097Y   23009.94645076  .00002393  00000-0  16845-3 0  9992,2 53410  53.2160 257.9614 0002096  33.3449 326.7675 15.08833239 24328,6917.901,95.438,541.216,538.316,0.0
53410.0,STARLINK-4492,PAYLOAD,2023-01-10 11:25:58,15.08841592,0.0002331,53.2151,255.5829,34.2504,325.8639,0.00012796,1.749e-05,0.0,0 STARLINK-4492,1 53410U 22097Y   23010.47636816  .00001749  00000-0  12796-3 0  9999,2 53410  53.2151 255.5829 0002331  34.2504 325.8639 15.08841592 24404,6917.876,95.437,541.3530000000002,538.128,0.0
53410.0,STARLINK-4492,PAYLOAD,2023-01-10 17:47:30,15.0883872,0.0002291,53.2151,254.3933,33.9426,326.1713,0.00012721,1.737e-05,0.0,0 STARLINK-4492,1 53410U 22097Y   23010.74132992  .00001737  00000-0  12721-3 0  9990,2 53410  53.2151 254.3933 0002291  33.9426 326.1713 15.08838720 23956,6917.884,95.438,541.3340000000002,538.164,0.0
53410.0,STARLINK-4492,PAYLOAD,2023-01-11 11:16:44,15.08853022,0.0002345,53.2148,251.1222,36.7351,323.3801,0.0002912,4.351e-05,0.0,0 STARLINK-4492,1 53410U 22097Y   23011.46996271  .00004351  00000-0  29120-3 0  9994,2 53410  53.2148 251.1222 0002345  36.7351 323.3801 15.08853022 24068,6917.840999999999,95.437,541.328,538.0830000000002,0.0
53410.0,STARLINK-4492,PAYLOAD,2023-01-11 22:24:27,15.08843583,0.0002376,53.2144,249.0404,37.301,322.8147,9.7565e-05,1.265e-05,0.0,0 STARLINK-4492,1 53410U 22097Y   23011.93364587  .00001265  00000-0  97565-4 0  9995,2 53410  53.2144 249.0404 0002376  37.3010 322.8147 15.08843583 24625,6917.8690000000015,95.437,541.378,538.091,0.0
53410.0,STARLINK-4492,PAYLOAD,2023-01-12 17:29:05,15.08823911,0.0002141,53.2161,245.4721,32.6332,327.4792,-2.4815e-06,-3.28e-06,0.0,0 STARLINK-4492,1 53410U 22097Y   23012.72854034 -.00000328  00000-0 -24815-5 0  9994,2 53410  53.2161 245.4721 0002141  32.6332 327.4792 15.08823911 24250,6917.93,95.439,541.276,538.313,0.0
53410.0,STARLINK-4492,PAYLOAD,2023-01-12 22:15:15,15.08830725,0.000197,53.2159,244.5787,33.7114,326.4003,-1.6796e-05,-5.55e-06,0.0,0 STARLINK-4492,1 53410U 22097Y   23012.92725764 -.00000555  00000-0 -16796-4 0  9993,2 53410  53.2159 244.5787 0001970  33.7114 326.4003 15.08830725 24770,6917.9090000000015,95.438,541.137,538.411,0.0
53410.0,STARLINK-4492,PAYLOAD,2023-01-13 07:47:33,15.08833981,0.0002089999999999,53.2155,242.7945,32.7042,327.408,-1.3621e-05,-5.05e-06,0.0,0 STARLINK-4492,1 53410U 22097Y   23013.32469701 -.00000505  00000-0 -13621-4 0  9993,2 53410  53.2155 242.7945 0002090  32.7042 327.4080 15.08833981 24341,6917.899,95.438,541.21,538.318,0.0
53410.0,STARLINK-4492,PAYLOAD,2023-01-13 22:06:02,15.08835944,0.000212,53.2156,240.1193,38.1722,321.942,6.7882e-05,7.92e-06,0.0,0 STARLINK-4492,1 53410U 22097Y   23013.92085770  .00000792  00000-0  67882-4 0  9993,2 53410  53.2156 240.1193 0002120  38.1722 321.9420 15.08835944 24920,6917.893,95.438,541.224,538.2909999999999,0.0
53410.0,STARLINK-4492,PAYLOAD,2023-01-14 15:35:17,15.08826857,0.000199,53.2154,236.8481,39.3652,320.7484,0.00011485,1.5399999999999998e-05,0.0,0 STARLINK-4492,1 53410U 22097Y   23014.64950762  .00001540  00000-0  11485-3 0  9994,2 53410  53.2154 236.8481 0001990  39.3652 320.7484 15.08826857 24547,6917.920999999999,95.438,541.1619999999999,538.409,0.0
53410.0,STARLINK-4492,PAYLOAD,2023-01-14 23:32:12,15.08836969,0.0002025,53.2151,235.3611,42.084,318.0308,0.00014349,1.996e-05,0.0,0 STARLINK-4492,1 53410U 22097Y   23014.98070247  .00001996  00000-0  14349-3 0  9999,2 53410  53.2151 235.3611 0002025  42.0840 318.0308 15.08836969 24598,6917.89,95.438,541.156,538.354,0.0
53410.0,STARLINK-4492,PAYLOAD,2023-01-15 09:04:31,15.08834688,0.0001938,53.215,233.577,45.3259,314.7891,0.00012526,1.706e-05,0.0,0 STARLINK-4492,1 53410U 22097Y   23015.37814671  .00001706  00000-0  12526-3 0  9994,2 53410  53.2150 233.5770 0001938  45.3259 314.7891 15.08834688 25143,6917.897,95.438,541.102,538.4209999999999,0.0
53410.0,STARLINK-4492,PAYLOAD,2023-01-15 21:47:36,15.08842309,0.0001899,53.2146,231.1977,44.9801,315.1345,0.00014044,1.948e-05,0.0,0 STARLINK-4492,1 53410U 22097Y   23015.90806413  .00001948  00000-0  14044-3 0  9993,2 53410  53.2146 231.1977 0001899  44.9801 315.1345 15.08842309 25222,6917.8730000000005,95.437,541.052,538.425,0.0
53410.0,STARLINK-4492,PAYLOAD,2023-01-16 07:19:55,15.08836344,0.0001894,53.2145,229.4128,51.051,309.065,6.4127e-05,7.32e-06,0.0,0 STARLINK-4492,1 53410U 22097Y   23016.30550759  .00000732  00000-0  64127-4 0  9995,2 53410  53.2145 229.4128 0001894  51.0510 309.0650 15.08836344 24794,6917.892,95.438,541.067,538.446,0.0
53410.0,STARLINK-4492,PAYLOAD,2023-01-16 20:03:01,15.08833854,0.0001805,53.2151,227.0342,52.2838,307.8318,6.4834e-05,7.44e-06,0.0,0 STARLINK-4492,1 53410U 22097Y   23016.83543265  .00000744  00000-0  64834-4 0  9995,2 53410  53.2151 227.0342 0001805  52.2838 307.8318 15.08833854 25365,6917.899,95.438,541.013,538.515,0.0
53410.0,STARLINK-4492,PAYLOAD,2023-01-17 08:46:06,15.08836697,0.0001783,53.2152,224.6556,53.518,306.5976,8.054e-05,9.94e-06,0.0,0 STARLINK-4492,1 53410U 22097Y   23017.36535074  .00000994  00000-0  80540-4 0  9992,2 53410  53.2152 224.6556 0001783  53.5180 306.5976 15.08836697 24953,6917.89,95.438,540.989,538.5219999999999,0.0
53410.0,STARLINK-4492,PAYLOAD,2023-01-17 15:07:38,15.08837199,0.0001795,53.2153,223.4662,54.2317,305.8842,7.4076e-05,8.91e-06,0.0,0 STARLINK-4492,1 53410U 22097Y   23017.63031140  .00000891  00000-0  74076-4 0  9990,2 53410  53.2153 223.4662 0001795  54.2317 305.8842 15.08837199 25483,6917.889,95.438,540.996,538.512,0.0
53410.0,STARLINK-4492,PAYLOAD,2023-01-18 07:01:29,15.08845254,0.0001613,53.2155,220.492,58.2213,301.8936,4.2783e-05,3.93e-06,0.0,0 STARLINK-4492,1 53410U 22097Y   23018.29270659  .00000393  00000-0  42783-4 0  9990,2 53410  53.2155 220.4920 0001613  58.2213 301.8936 15.08845254 25589,6917.8640000000005,95.437,540.845,538.613,0.0
53410.0,STARLINK-4492,PAYLOAD,2023-01-18 19:44:35,15.08840459,0.0001688,53.2155,218.1129,58.4419,301.6738,0.00012835,1.755e-05,0.0,0 STARLINK-4492,1 53410U 22097Y   23018.82262807  .00001755  00000-0  12835-3 0  9992,2 53410  53.2155 218.1129 0001688  58.4419 301.6738 15.08840459 25665,6917.879,95.438,540.9119999999999,538.576,0.0
53410.0,STARLINK-4492,PAYLOAD,2023-01-18 21:19:58,15.08840709,0.000159,53.2156,217.8153,61.0245,299.0906,0.00014989,2.098e-05,0.0,0 STARLINK-4492,1 53410U 22097Y   23018.88886731  .00002098  00000-0  14989-3 0  9999,2 53410  53.2156 217.8153 0001590  61.0245 299.0906 15.08840709 25180,6917.878000000001,95.438,540.8430000000001,538.643,0.0
